CALSPHERE 1             
1 00900U 64063C   26071.50294892  .00000756  00000+0  76172-3 0  9996
2 00900  90.2162  69.5141 0023903 221.6718 264.0045 13.76501977 58124
