[
  {
    "OBJECT_NAME": "CALSPHERE 1",
    "OBJECT_ID": "1964-063C",
    "EPOCH": "2026-03-12T12:04:14.786688",
    "MEAN_MOTION": 13.76501977,
    "ECCENTRICITY": 0.0023903,
    "INCLINATION": 90.2162,
    "RA_OF_ASC_NODE": 69.5141,
    "ARG_OF_PERICENTER": 221.6718,
    "MEAN_ANOMALY": 264.0045,
    "EPHEMERIS_TYPE": 0,
    "CLASSIFICATION_TYPE": "U",
    "NORAD_CAT_ID": 900,
    "ELEMENT_SET_NO": 999,
    "REV_AT_EPOCH": 5812,
    "BSTAR": 0.00076172,
    "MEAN_MOTION_DOT": 7.56e-6,
    "MEAN_MOTION_DDOT": 0
  }
]
